STARLINK-35513          
1 65930U 25225W   25307.83336806 -.00101162  00000+0 -18320-2 0  9991
2 65930  53.1603  32.3109 0000975  57.9981 177.7684 15.49347477  5175
STARLINK-35526          
1 65931U 25225X   25307.83336806 -.00100979  00000+0 -18286-2 0  9998
2 65931  53.1601  32.2987 0000985  78.4732 163.0436 15.49347148  5178
STARLINK-35436          
1 65932U 25225Y   25307.83336806 -.00094499  00000+0 -17094-2 0  9994
2 65932  53.1601  32.2954 0001019  78.9646 164.4681 15.49345243  5172
STARLINK-35192          
1 65933U 25225Z   25307.83336806 -.00087269  00000+0 -15767-2 0  9997
2 65933  53.1601  32.2829 0001052  69.0247 180.1557 15.49342194  5178
STARLINK-33921          
1 65934U 25225AA  25307.83336806 -.00080055  00000+0 -14446-2 0  9997
2 65934  53.1601  32.2912 0000980  82.7334 162.6135 15.49338677  5167
STARLINK-35155          
1 65935U 25225AB  25307.83336806 -.00088503  00000+0 -15995-2 0  9994
2 65935  53.1601  32.2872 0000982  59.4706 187.7963 15.49340957  5160
STARLINK-35161          
1 65936U 25225AC  25307.83336806 -.00082810  00000+0 -14950-2 0  9990
2 65936  53.1602  32.2796 0000997  61.0284 190.0677 15.49340686  5172
STARLINK-35473          
1 65937U 25225AD  25307.83336806 -.00088014  00000+0 -15904-2 0  9993
2 65937  53.1601  32.2760 0000992  67.3903 185.6235 15.49342601  5174
2025-226A               
1 65938U 25226A   25307.83950052  .00010259  00000+0  60096-3 0  9997
2 65938  97.6669  22.0413 0014963 198.8944 161.1732 15.11909271  3598
2025-226B               
1 65939U 25226B   25307.86676002  .00006112  00000+0  38093-3 0  9996
2 65939  97.6634  21.9934 0020905 201.7291 158.3053 15.09746543  3580
2025-226C               
1 65940U 25226C   25307.84125376  .00010323  00000+0  60651-3 0  9993
2 65940  97.6578  22.0130 0014916 196.8429 163.2308 15.11797309  3588
YOTSUBA-KULOVER         
1 65941U 98067XN  25306.19457614  .00050853  00000+0  79362-3 0  9998
2 65941  51.6327 342.7961 0002694 352.6363   7.4587 15.53311816  3549
